IRIDIUM 171             
1 43929U 19002H   24362.64142146  .00000065  00000+0  15987-4 0  9998
2 43929  86.3985 218.0094 0002079  99.9293 260.2137 14.34218349312052
IRIDIUM 170             
1 43930U 19002J   24363.30776658  .00002415  00000+0  37921-3 0  9997
2 43930  86.6103 217.5170 0002475  79.5927 280.5569 14.72234082320413
IRIDIUM 167             
1 43931U 19002K   24362.84438121  .00000399  00000+0  13527-3 0  9991
2 43931  86.3977 217.6959 0001687  96.9927 263.1461 14.34221068312083
IRIDIUM 181             
1 56726U 23068S   24363.26275884  .00001155  00000+0  33539-3 0  9992
2 56726  86.6868 280.1800 0002383  93.6233 266.5241 14.43570281 85139
IRIDIUM 177             
1 56727U 23068T   24362.90383932  .00003133  00000+0  40897-3 0  9990
2 56727  86.1985 223.3690 0002165  88.4299 271.7170 14.80215772 87035
IRIDIUM 174             
1 56728U 23068U   24362.69559017  .00003157  00000+0  41209-3 0  9990
2 56728  86.1984 223.5860 0002325  86.5897 273.5590 14.80213555 87007
IRIDIUM 178             
1 56729U 23068V   24363.09578655  .00000548  00000+0  68724-4 0  9998
2 56729  86.5778 250.0328 0002727  90.0577 270.0957 14.80215701 87068
IRIDIUM 179             
1 56730U 23068W   24363.42836845  .00003220  00000+0  42033-3 0  9999
2 56730  86.6782 256.4711 0002346  79.4880 280.6606 14.80228913 87110
